NORAD_CAT_ID,OBJECT_NAME,OBJECT_TYPE,EPOCH,MEAN_MOTION,ECCENTRICITY,INCLINATION,RA_OF_ASC_NODE,ARG_OF_PERICENTER,MEAN_ANOMALY,BSTAR,MEAN_MOTION_DOT,MEAN_MOTION_DDOT,TLE_LINE0,TLE_LINE1,TLE_LINE2,SEMIMAJOR_AXIS,PERIOD,APOGEE,PERIGEE,DECAYED
52266.0,STARLINK-3739,PAYLOAD,2023-06-17 23:31:23,15.0883512,9.64e-05,53.216,259.0343,64.647,295.4622,-8.7246e-07,-3.02e-06,0.0,0 STARLINK-3739,1 52266U 22041F   23168.98013239 -.00000302  00000-0 -87246-6 0  9995,2 52266  53.2160 259.0343 0000964  64.6470 295.4622 15.08835120 65275,6917.895,95.438,540.427,539.093,0.0
52266.0,STARLINK-3739,PAYLOAD,2023-06-18 12:14:28,15.0884459,9.86e-05,53.2161,256.6547,63.3547,296.7546,4.8416e-05,4.83e-06,0.0,0 STARLINK-3739,1 52266U 22041F   23169.51004897  .00000483  00000-0  48416-4 0  9997,2 52266  53.2161 256.6547 0000986  63.3547 296.7546 15.08844590 64123,6917.866,95.437,540.413,539.049,0.0
52266.0,STARLINK-3739,PAYLOAD,2023-06-18 15:25:14,15.0884698,0.0001017,53.216,256.06,64.3689,295.7408,0.00011069,1.475e-05,0.0,0 STARLINK-3739,1 52266U 22041F   23169.64252813  .00001475  00000-0  11069-3 0  9999,2 52266  53.2160 256.0600 0001017  64.3689 295.7408 15.08846980 65379,6917.859,95.437,540.428,539.021,0.0
52266.0,STARLINK-3739,PAYLOAD,2023-06-19 08:54:29,15.08841755,0.0001098,53.2156,252.7893,58.4234,301.6865,0.0002902,4.334e-05,0.0,0 STARLINK-3739,1 52266U 22041F   23170.37117396  .00004334  00000-0  29020-3 0  9990,2 52266  53.2156 252.7893 0001098  58.4234 301.6865 15.08841755 65481,6917.875,95.437,540.5,538.98,0.0
52266.0,STARLINK-3739,PAYLOAD,2023-06-20 08:45:16,15.08839373,0.0001041,53.2156,248.3285,62.6811,297.4287,2.6122e-05,1.28e-06,0.0,0 STARLINK-3739,1 52266U 22041F   23171.36477302  .00000128  00000-0  26122-4 0  9994,2 52266  53.2156 248.3285 0001041  62.6811 297.4287 15.08839373 65633,6917.882,95.438,540.467,539.027,0.0
52266.0,STARLINK-3739,PAYLOAD,2023-06-20 11:56:02,15.08842166,9.88e-05,53.2153,247.7344,62.7753,297.334,8.0939e-05,1.001e-05,0.0,0 STARLINK-3739,1 52266U 22041F   23171.49725199  .00001001  00000-0  80939-4 0  9995,2 52266  53.2153 247.7344 0000988  62.7753 297.3340 15.08842166 64423,6917.874,95.437,540.422,539.055,0.0
52266.0,STARLINK-3739,PAYLOAD,2023-06-21 11:46:49,15.08843492,9.6e-05,53.2152,243.2744,62.7812,297.3278,9.1737e-05,1.173e-05,0.0,0 STARLINK-3739,1 52266U 22041F   23172.49085134  .00001173  00000-0  91737-4 0  9992,2 52266  53.2152 243.2744 0000960  62.7812 297.3278 15.08843492 65809,6917.87,95.437,540.399,539.071,0.0
52266.0,STARLINK-3739,PAYLOAD,2023-06-22 10:02:13,15.08836572,9e-05,53.2159,239.1121,61.9669,298.1414,7.9001e-05,9.7e-06,0.0,0 STARLINK-3739,1 52266U 22041F   23173.41821703  .00000970  00000-0  79001-4 0  9999,2 52266  53.2159 239.1121 0000900  61.9669 298.1414 15.08836572 65941,6917.891,95.438,540.378,539.133,0.0
52266.0,STARLINK-3739,PAYLOAD,2023-06-22 14:48:22,15.08854025,9.72e-05,53.2165,238.2192,73.7945,286.3154,-3.4538e-05,-8.38e-06,0.0,0 STARLINK-3739,1 52266U 22041F   23173.61692739 -.00000838  00000-0 -34538-4 0  9997,2 52266  53.2165 238.2192 0000972  73.7945 286.3154 15.08854025 65979,6917.838,95.437,540.375,539.03,0.0
52266.0,STARLINK-3739,PAYLOAD,2023-06-22 22:45:18,15.08838195,8.85e-05,53.216,236.7319,69.7675,290.3412,0.00011363,1.521e-05,0.0,0 STARLINK-3739,1 52266U 22041F   23173.94813613  .00001521  00000-0  11363-3 0  9997,2 52266  53.2160 236.7319 0000885  69.7675 290.3412 15.08838195 66025,6917.886,95.438,540.363,539.139,0.0
52266.0,STARLINK-3739,PAYLOAD,2023-06-23 13:03:46,15.08847733,9.06e-05,53.2154,234.0571,76.3574,283.7519,0.00014116,1.96e-05,0.0,0 STARLINK-3739,1 52266U 22041F   23174.54428934  .00001960  00000-0  14116-3 0  9998,2 52266  53.2154 234.0571 0000906  76.3574 283.7519 15.08847733 66117,6917.857,95.437,540.349,539.095,0.0
52266.0,STARLINK-3739,PAYLOAD,2023-06-24 00:11:29,15.08835402,0.000103,53.2148,231.9742,91.0532,269.0578,2.8784e-05,1.7e-06,0.0,0 STARLINK-3739,1 52266U 22041F   23175.00797613  .00000170  00000-0  28784-4 0  9992,2 52266  53.2148 231.9742 0001030  91.0532 269.0578 15.08835402 66182,6917.894,95.438,540.472,539.047,0.0
52266.0,STARLINK-3739,PAYLOAD,2023-06-25 03:13:02,15.08842565,9.35e-05,53.2159,226.9187,80.012,280.0978,0.00011418,1.53e-05,0.0,0 STARLINK-3739,1 52266U 22041F   23176.13405611  .00001530  00000-0  11418-3 0  9997,2 52266  53.2159 226.9187 0000935  80.0120 280.0978 15.08842565 66359,6917.873,95.437,540.384,539.091,0.0
52266.0,STARLINK-3739,PAYLOAD,2023-06-25 23:53:03,15.08838524,0.0001048,53.2149,223.0535,80.8689,279.2422,0.00011959,1.616e-05,0.0,0 STARLINK-3739,1 52266U 22041F   23176.99517850  .00001616  00000-0  11959-3 0  9995,2 52266  53.2149 223.0535 0001048  80.8689 279.2422 15.08838524 66485,6917.885,95.438,540.475,539.025,0.0
52266.0,STARLINK-3739,PAYLOAD,2023-06-27 09:16:09,15.08840589,0.000105,53.2154,216.8084,86.5875,273.5237,-4.4543e-07,-2.95e-06,0.0,0 STARLINK-3739,1 52266U 22041F   23178.38621893 -.00000295  00000-0 -44543-6 0  9995,2 52266  53.2154 216.8084 0001050  86.5875 273.5237 15.08840589 66691,6917.879,95.438,540.47,539.017,0.0
52266.0,STARLINK-3739,PAYLOAD,2023-06-28 13:53:05,15.0883921,0.0001058,53.2158,211.4557,85.6673,274.444,5.258e-05,5.49e-06,0.0,0 STARLINK-3739,1 52266U 22041F   23179.57853850  .00000549  00000-0  52580-4 0  9995,2 52266  53.2158 211.4557 0001058  85.6673 274.4440 15.08839210 66870,6917.883,95.438,540.48,539.016,0.0
52266.0,STARLINK-3739,PAYLOAD,2023-07-01 10:14:41,15.08838654,0.0001041,53.2158,198.6694,83.1646,276.9464,4.5144e-05,4.31e-06,0.0,0 STARLINK-3739,1 52266U 22041F   23182.42686473  .00000431  00000-0  45144-4 0  9996,2 52266  53.2158 198.6694 0001041  83.1646 276.9464 15.08838654 67306,6917.885,95.438,540.47,539.029,0.0
52266.0,STARLINK-3739,PAYLOAD,2023-07-02 13:16:14,15.0884111,0.0001073,53.2161,193.6137,82.6368,277.4746,5.6401e-05,6.1e-06,0.0,0 STARLINK-3739,1 52266U 22041F   23183.55294343  .00000610  00000-0  56401-4 0  9999,2 52266  53.2161 193.6137 0001073  82.6368 277.4746 15.08841110 67475,6917.877,95.437,540.484,539.0,0.0
52266.0,STARLINK-3739,PAYLOAD,2023-07-03 17:53:10,15.08840325,0.0001093,53.2162,188.2611,82.7843,277.3273,3.9867e-05,3.47e-06,0.0,0 STARLINK-3739,1 52266U 22041F   23184.74526418  .00000347  00000-0  39867-4 0  9996,2 52266  53.2162 188.2611 0001093  82.7843 277.3273 15.08840325 67655,6917.879,95.438,540.501,538.988,0.0
52266.0,STARLINK-3739,PAYLOAD,2023-07-05 04:51:39,15.08838701,0.0001136,53.2162,181.7182,86.9247,273.1876,1.5538e-05,-4.1e-07,0.0,0 STARLINK-3739,1 52266U 22041F   23186.20254516 -.00000041  00000-0  15538-4 0  9997,2 52266  53.2162 181.7182 0001136  86.9247 273.1876 15.08838701 67870,6917.884,95.438,540.535,538.963,0.0
52266.0,STARLINK-3739,PAYLOAD,2023-07-06 09:28:36,15.08836394,0.0001153,53.2162,176.3668,85.4146,274.6978,4.86e-07,-2.8e-06,0.0,0 STARLINK-3739,1 52266U 22041F   23187.39486926 -.00000280  00000-0  48600-6 0  9993,2 52266  53.2162 176.3668 0001153  85.4146 274.6978 15.08836394 68056,6917.891,95.438,540.554,538.959,0.0
52266.0,STARLINK-3739,PAYLOAD,2023-07-07 15:40:56,15.08837107,0.0001124,53.2161,170.7169,83.6564,276.4556,3.028e-05,1.94e-06,0.0,0 STARLINK-3739,1 52266U 22041F   23188.65342980  .00000194  00000-0  30280-4 0  9990,2 52266  53.2161 170.7169 0001124  83.6564 276.4556 15.08837107 68247,6917.889,95.438,540.532,538.977,0.0
52266.0,STARLINK-3739,PAYLOAD,2023-07-09 02:39:25,15.0883617,0.0001225,53.2165,164.1763,92.3599,267.7533,-1.447e-05,-5.18e-06,0.0,0 STARLINK-3739,1 52266U 22041F   23190.11071593 -.00000518  00000-0 -14470-4 0  9998,2 52266  53.2165 164.1763 0001225  92.3599 267.7533 15.08836170 68466,6917.892,95.438,540.605,538.91,0.0
52266.0,STARLINK-3739,PAYLOAD,2023-07-10 04:05:36,15.08837127,0.0001229,53.2164,159.4166,88.9846,271.1287,4.4043e-05,4.13e-06,0.0,0 STARLINK-3739,1 52266U 22041F   23191.17055558  .00000413  00000-0  44043-4 0  9999,2 52266  53.2164 159.4166 0001229  88.9846 271.1287 15.08837127 68625,6917.889,95.438,540.604,538.904,0.0
52266.0,STARLINK-3739,PAYLOAD,2023-07-11 07:07:08,15.08843896,0.0001235,53.2165,154.3617,85.3725,274.7408,9.2603e-05,1.186e-05,0.0,0 STARLINK-3739,1 52266U 22041F   23192.29662962  .00001186  00000-0  92603-4 0  9999,2 52266  53.2165 154.3617 0001235  85.3725 274.7408 15.08843896 68797,6917.868,95.437,540.588,538.879,0.0
52266.0,STARLINK-3739,PAYLOAD,2023-07-12 03:47:09,15.08842388,0.0001233,53.2165,150.495,91.125,268.9884,3.1923e-05,2.2e-06,0.0,0 STARLINK-3739,1 52266U 22041F   23193.15775130  .00000220  00000-0  31923-4 0  9993,2 52266  53.2165 150.4950 0001233  91.1250 268.9884 15.08842388 68923,6917.873,95.437,540.591,538.885,0.0
52266.0,STARLINK-3739,PAYLOAD,2023-07-13 06:48:43,15.08850362,0.0001114,53.2158,145.4422,80.2985,279.8133,-0.00010225,-1.915e-05,0.0,0 STARLINK-3739,1 52266U 22041F   23194.28383136 -.00001915  00000-0 -10225-3 0  9994,2 52266  53.2158 145.4422 0001114  80.2985 279.8133 15.08850362 69093,6917.849,95.437,540.484,538.943,0.0
52266.0,STARLINK-3739,PAYLOAD,2023-07-14 06:39:30,15.08841809,0.0001224,53.2165,140.9801,89.7142,270.3991,3.4061e-05,2.54e-06,0.0,0 STARLINK-3739,1 52266U 22041F   23195.27743414  .00000254  00000-0  34061-4 0  9991,2 52266  53.2165 140.9801 0001224  89.7142 270.3991 15.08841809 69244,6917.875,95.437,540.587,538.893,0.0
52266.0,STARLINK-3739,PAYLOAD,2023-07-15 00:08:45,15.088373,0.0001168,53.2165,137.7097,91.0053,269.1073,3.736e-05,3.07e-06,0.0,0 STARLINK-3739,1 52266U 22041F   23196.00607898  .00000307  00000-0  37360-4 0  9992,2 52266  53.2165 137.7097 0001168  91.0053 269.1073 15.08837300 69359,6917.889,95.438,540.562,538.946,0.0
52266.0,STARLINK-3739,PAYLOAD,2023-07-15 04:54:54,15.08843428,0.0001099,53.2163,136.8176,93.0627,267.0491,8.8468e-05,1.121e-05,0.0,0 STARLINK-3739,1 52266U 22041F   23196.20479290  .00001121  00000-0  88468-4 0  9997,2 52266  53.2163 136.8176 0001099  93.0627 267.0491 15.08843428 69389,6917.87,95.437,540.495,538.975,0.0
